0 COSMOS 2251 DEB
1 38058U 93036BRQ 13281.48772209  .00001646  00000-0  15024-2 0  1161
2 38058 074.0091 214.9275 0463563 290.0021 065.1415 13.44360700118389
0 COSMOS 2251 DEB
1 38058U 93036BRQ 13284.46417551  .00001481  00000-0  13617-2 0  1172
2 38058 074.0105 210.2180 0461462 284.6213 070.3547 13.44366946118783
0 COSMOS 2251 DEB
1 38058U 93036BRQ 13286.47329414  .00001427  00000-0  13157-2 0  1185
2 38058 074.0100 207.0406 0460644 281.0414 073.9202 13.44371653119057
0 COSMOS 2251 DEB
1 38058U 93036BRQ 13289.15209015  .00001357  00000-0  12504-2 0  1195
2 38058 074.0107 202.7989 0461042 276.2658 078.5937 13.44378004119414
0 COSMOS 2251 DEB
1 38058U 93036BRQ 13290.41707963  .00001345  00000-0  12395-2 0  1208
2 38058 074.0120 200.7997 0461199 274.0016 080.8475 13.44381312119580
0 COSMOS 2251 DEB
1 38058U 93036BRQ 13292.42617270  .00001327  00000-0  12225-2 0  1215
2 38058 074.0116 197.6184 0461194 270.4242 084.4027 13.44386422119853
0 COSMOS 2251 DEB
1 38058U 93036BRQ 13294.06320825  .00001301  00000-0  11990-2 0  1225
2 38058 074.0127 195.0259 0461213 267.5243 087.2893 13.44390304120072
0 COSMOS 2251 DEB
1 38058U 93036BRQ 13295.10495930  .00001290  00000-0  11884-2 0  1231
2 38058 074.0136 193.3766 0461246 265.6585 089.1678 13.44392858120214
